$$SOE
2459580.500000000, A.D. 2022-Jan-01 00:00:00.0000, -2.394145791442723E+08, 4.301755692949894E+08, -6.905587796157719E+07,
2459587.500000000, A.D. 2022-Jan-08 00:00:00.0000, -2.483078142751622E+08, 4.259562354119262E+08, -6.804962238993604E+07,
2459594.500000000, A.D. 2022-Jan-15 00:00:00.0000, -2.571033422610543E+08, 4.215691939354449E+08, -6.701657202482675E+07,
2459601.500000000, A.D. 2022-Jan-22 00:00:00.0000, -2.657980553083944E+08, 4.170167597675850E+08, -6.595722759142764E+07,
2459608.500000000, A.D. 2022-Jan-29 00:00:00.0000, -2.743889070518372E+08, 4.123012995743768E+08, -6.487209661424688E+07,
2459615.500000000, A.D. 2022-Feb-05 00:00:00.0000, -2.828729151948626E+08, 4.074252294124345E+08, -6.376169295511083E+07,
2459622.500000000, A.D. 2022-Feb-12 00:00:00.0000, -2.912471619260077E+08, 4.023910113000149E+08, -6.262653663906050E+07,
2459629.500000000, A.D. 2022-Feb-19 00:00:00.0000, -2.995087934399973E+08, 3.972011511031290E+08, -6.146715365395738E+07,
2459636.500000000, A.D. 2022-Feb-26 00:00:00.0000, -3.076550198781087E+08, 3.918581970171547E+08, -6.028407566389157E+07,
2459643.500000000, A.D. 2022-Mar-05 00:00:00.0000, -3.156831155299753E+08, 3.863647380295805E+08, -5.907783970220874E+07,
2459650.500000000, A.D. 2022-Mar-12 00:00:00.0000, -3.235904190761907E+08, 3.807234022998804E+08, -5.784898787037723E+07,
2459657.500000000, A.D. 2022-Mar-19 00:00:00.0000, -3.313743338017912E+08, 3.749368554858792E+08, -5.659806704729980E+07,
2459664.500000000, A.D. 2022-Mar-26 00:00:00.0000, -3.390323277593548E+08, 3.690077990116701E+08, -5.532562861188599E+07,
2459671.500000000, A.D. 2022-Apr-02 00:00:00.0000, -3.465619338150914E+08, 3.629389682220021E+08, -5.403222818986757E+07,
2459678.500000000, A.D. 2022-Apr-09 00:00:00.0000, -3.539607493070963E+08, 3.567331304284927E+08, -5.271842544954689E+07,
2459685.500000000, A.D. 2022-Apr-16 00:00:00.0000, -3.612264349600531E+08, 3.503930835020537E+08, -5.138478392588539E+07,
2459692.500000000, A.D. 2022-Apr-23 00:00:00.0000, -3.683567143272716E+08, 3.439216560963096E+08, -5.003187066816360E+07,
2459699.500000000, A.D. 2022-Apr-30 00:00:00.0000, -3.753493756321887E+08, 3.373217072581712E+08, -4.866025572352923E+07,
2459706.500000000, A.D. 2022-May-07 00:00:00.0000, -3.822022729467869E+08, 3.305961234525718E+08, -4.727051189847971E+07,
2459713.500000000, A.D. 2022-May-14 00:00:00.0000, -3.889133253182316E+08, 3.237478160383123E+08, -4.586321467701812E+07,
2459720.500000000, A.D. 2022-May-21 00:00:00.0000, -3.954805158774304E+08, 3.167797199537473E+08, -4.443894204737562E+07,
2459727.500000000, A.D. 2022-May-28 00:00:00.0000, -4.019018914102613E+08, 3.096947926546133E+08, -4.299827427197890E+07,
2459734.500000000, A.D. 2022-Jun-04 00:00:00.0000, -4.081755621154478E+08, 3.024960129916626E+08, -4.154179365158574E+07,
2459741.500000000, A.D. 2022-Jun-11 00:00:00.0000, -4.142997014054967E+08, 2.951863800303897E+08, -4.007008429654220E+07,
2459748.500000000, A.D. 2022-Jun-18 00:00:00.0000, -4.202725457132317E+08, 2.877689118262285E+08, -3.858373190749846E+07,
2459755.500000000, A.D. 2022-Jun-25 00:00:00.0000, -4.260923942757251E+08, 2.802466441222045E+08, -3.708332357086471E+07,
2459762.500000000, A.D. 2022-Jul-02 00:00:00.0000, -4.317576087627722E+08, 2.726226289034518E+08, -3.556944758651596E+07,
2459769.500000000, A.D. 2022-Jul-09 00:00:00.0000, -4.372666123607175E+08, 2.648999329855680E+08, -3.404269334887418E+07,
2459776.500000000, A.D. 2022-Jul-16 00:00:00.0000, -4.426178883680009E+08, 2.570816377193550E+08, -3.250365118759529E+07,
2459783.500000000, A.D. 2022-Jul-23 00:00:00.0000, -4.478099805027422E+08, 2.491708398895454E+08, -3.095291195976084E+07,
2459790.500000000, A.D. 2022-Jul-30 00:00:00.0000, -4.528414948401231E+08, 2.411706504543642E+08, -2.939106667529577E+07,
2459797.500000000, A.D. 2022-Aug-06 00:00:00.0000, -4.577110997807350E+08, 2.330841917741382E+08, -2.781870643223276E+07,
2459804.500000000, A.D. 2022-Aug-13 00:00:00.0000, -4.624175248734624E+08, 2.249145960819261E+08, -2.623642236066516E+07,
2459811.500000000, A.D. 2022-Aug-20 00:00:00.0000, -4.669595600644625E+08, 2.166650046921719E+08, -2.464480547245021E+07,
2459818.500000000, A.D. 2022-Aug-27 00:00:00.0000, -4.713360553059554E+08, 2.083385672212082E+08, -2.304444648216534E+07,
2459825.500000000, A.D. 2022-Sep-03 00:00:00.0000, -4.755459202779305E+08, 1.999384407093136E+08, -2.143593563083488E+07,
2459832.500000000, A.D. 2022-Sep-10 00:00:00.0000, -4.795881241333486E+08, 1.914677886682543E+08, -1.981986251846022E+07,
2459839.500000000, A.D. 2022-Sep-17 00:00:00.0000, -4.834616952377818E+08, 1.829297800524893E+08, -1.819681594795686E+07,
2459846.500000000, A.D. 2022-Sep-24 00:00:00.0000, -4.871657208429915E+08, 1.743275881028312E+08, -1.656738378998721E+07,
2459853.500000000, A.D. 2022-Oct-01 00:00:00.0000, -4.906993464541346E+08, 1.656643890394454E+08, -1.493215289237101E+07,
2459860.500000000, A.D. 2022-Oct-08 00:00:00.0000, -4.940617744831719E+08, 1.569433611248453E+08, -1.329170902872790E+07,
2459867.500000000, A.D. 2022-Oct-15 00:00:00.0000, -4.972522631211219E+08, 1.481676852943310E+08, -1.164663670304959E+07,
2459874.500000000, A.D. 2022-Oct-22 00:00:00.0000, -5.002701276131850E+08, 1.393405456688649E+08, -9.997518748124860E+06,
2459881.500000000, A.D. 2022-Oct-29 00:00:00.0000, -5.031147414414258E+08, 1.304651273573847E+08, -8.344936159282140E+06,
2459888.500000000, A.D. 2022-Nov-05 00:00:00.0000, -5.057855353159578E+08, 1.215446142901580E+08, -6.689468132088915E+06,
2459895.500000000, A.D. 2022-Nov-12 00:00:00.0000, -5.082819959395680E+08, 1.125821883496432E+08, -5.031692020294398E+06,
2459902.500000000, A.D. 2022-Nov-19 00:00:00.0000, -5.106036652663843E+08, 1.035810288442241E+08, -3.372183226177894E+06,
2459909.500000000, A.D. 2022-Nov-26 00:00:00.0000, -5.127501399932762E+08, 9.454431192746623E+07, -1.711515079885915E+06,
2459916.500000000, A.D. 2022-Dec-03 00:00:00.0000, -5.147210711182267E+08, 8.547520995113863E+07, -5.025872385306656E+04,
2459923.500000000, A.D. 2022-Dec-10 00:00:00.0000, -5.165161635202641E+08, 7.637689077013841E+07, 1.611016995168950E+06,
2459930.500000000, A.D. 2022-Dec-17 00:00:00.0000, -5.181351755364501E+08, 6.725251697365554E+07, 3.271745622301560E+06,
2459937.500000000, A.D. 2022-Dec-24 00:00:00.0000, -5.195779184268305E+08, 5.810524497608204E+07, 4.931363163683858E+06,
2459944.500000000, A.D. 2022-Dec-31 00:00:00.0000, -5.208442553699583E+08, 4.893822407455420E+07, 6.589308104719233E+06,
2459951.500000000, A.D. 2023-Jan-07 00:00:00.0000, -5.219340998663757E+08, 3.975459643481146E+07, 8.245021444984568E+06,
2459958.500000000, A.D. 2023-Jan-14 00:00:00.0000, -5.228474155174083E+08, 3.055749850119695E+07, 9.897946970962591E+06,
2459965.500000000, A.D. 2023-Jan-21 00:00:00.0000, -5.235842178253616E+08, 2.135006065737914E+07, 1.154753156657554E+07,
2459972.500000000, A.D. 2023-Jan-28 00:00:00.0000, -5.241445743481055E+08, 1.213540494245112E+07, 1.319322520932638E+07,
2459979.500000000, A.D. 2023-Feb-04 00:00:00.0000, -5.245286034158260E+08, 2.916643850055731E+06, 1.483448091890164E+07,
2459986.500000000, A.D. 2023-Feb-11 00:00:00.0000, -5.247364732047257E+08, -6.303119984153687E+06, 1.647075480727402E+07,
2459993.500000000, A.D. 2023-Feb-18 00:00:00.0000, -5.247684012317020E+08, -1.552079403077275E+07, 1.810150616898978E+07,
2460000.500000000, A.D. 2023-Feb-25 00:00:00.0000, -5.246246540079910E+08, -2.473329621261413E+07, 1.972619757455692E+07,
2460007.500000000, A.D. 2023-Mar-04 00:00:00.0000, -5.243055467498143E+08, -3.393755532954954E+07, 2.134429495939500E+07,
2460014.500000000, A.D. 2023-Mar-11 00:00:00.0000, -5.238114431172973E+08, -4.313051156175244E+07, 2.295526770607777E+07,
2460021.500000000, A.D. 2023-Mar-18 00:00:00.0000, -5.231427549343278E+08, -5.230911710092366E+07, 2.455858871181636E+07,
2460028.500000000, A.D. 2023-Mar-25 00:00:00.0000, -5.222999416856678E+08, -6.147033695686837E+07, 2.615373441897396E+07,
2460035.500000000, A.D. 2023-Apr-01 00:00:00.0000, -5.212835093662573E+08, -7.061114954629195E+07, 2.774018480209339E+07,
2460042.500000000, A.D. 2023-Apr-08 00:00:00.0000, -5.200940092974206E+08, -7.972854583939725E+07, 2.931742346820852E+07,
2460049.500000000, A.D. 2023-Apr-15 00:00:00.0000, -5.187320392468473E+08, -8.881952817158140E+07, 3.088493799456882E+07,
2460056.500000000, A.D. 2023-Apr-22 00:00:00.0000, -5.171982450443387E+08, -9.788111177328581E+07, 3.244222008863572E+07,
2460063.500000000, A.D. 2023-Apr-29 00:00:00.0000, -5.154933199592053E+08, -1.069103267652371E+08, 3.398876550386318E+07,
2460070.500000000, A.D. 2023-May-06 00:00:00.0000, -5.136180035991895E+08, -1.159042188379161E+08, 3.552407401841764E+07,
2460077.500000000, A.D. 2023-May-13 00:00:00.0000, -5.115730813075486E+08, -1.248598495093498E+08, 3.704764949340192E+07,
2460084.500000000, A.D. 2023-May-20 00:00:00.0000, -5.093593838246670E+08, -1.337742964526683E+08, 3.855899994892305E+07,
2460091.500000000, A.D. 2023-May-27 00:00:00.0000, -5.069777870208960E+08, -1.426446539226517E+08, 4.005763763775638E+07,
2460098.500000000, A.D. 2023-Jun-03 00:00:00.0000, -5.044292116423914E+08, -1.514680332550316E+08, 4.154307911324306E+07,
2460105.500000000, A.D. 2023-Jun-10 00:00:00.0000, -5.017146230451070E+08, -1.602415634525888E+08, 4.301484528781094E+07,
2460112.500000000, A.D. 2023-Jun-17 00:00:00.0000, -4.988350308271485E+08, -1.689623919190742E+08, 4.447246146873444E+07,
2460119.500000000, A.D. 2023-Jun-24 00:00:00.0000, -4.957914880394698E+08, -1.776276852865027E+08, 4.591545734611322E+07,
2460126.500000000, A.D. 2023-Jul-01 00:00:00.0000, -4.925850897222148E+08, -1.862346295086236E+08, 4.734336697742337E+07,
2460133.500000000, A.D. 2023-Jul-08 00:00:00.0000, -4.892169724410617E+08, -1.947804283990715E+08, 4.875572898930591E+07,
2460140.500000000, A.D. 2023-Jul-15 00:00:00.0000, -4.856883161008847E+08, -2.032623034446993E+08, 5.015208688245441E+07,
$$EOE